NORAD_CAT_ID,OBJECT_NAME,OBJECT_TYPE,EPOCH,MEAN_MOTION,ECCENTRICITY,INCLINATION,RA_OF_ASC_NODE,ARG_OF_PERICENTER,MEAN_ANOMALY,BSTAR,MEAN_MOTION_DOT,MEAN_MOTION_DDOT,TLE_LINE0,TLE_LINE1,TLE_LINE2,SEMIMAJOR_AXIS,PERIOD,APOGEE,PERIGEE,DECAYED
52288.0,STARLINK-3776,PAYLOAD,2022-08-25 14:00:01,15.08821867,0.0001648,53.2166,139.6063,61.2957,103.4936,0.0025127,0.00039909,0.0,0 STARLINK-3776,1 52288U 22041AD  22237.58334491  .00039909  00000-0  25127-2 0  9996,2 52288  53.2166 139.6063 0001648  61.2957 103.4936 15.08821867  1303,6917.936,95.439,540.941,538.661,0.0
52288.0,STARLINK-3776,PAYLOAD,2022-08-25 22:00:00,15.08859616,0.0001754999999999,53.2168,138.1111,60.1657,116.213,-0.0015913,-0.00025538,0.0,0 STARLINK-3776,1 52288U 22041AD  22237.91667824 -.00025538  00000-0 -15913-2 0  9999,2 52288  53.2168 138.1111 0001755  60.1657 116.2130 15.08859616 20714,6917.82,95.436,540.9,538.471,0.0
52288.0,STARLINK-3776,PAYLOAD,2022-08-26 14:00:01,15.08843595,0.0001624,53.2165,135.1173,63.5093,136.1533,0.00035447,5.358e-05,0.0,0 STARLINK-3776,1 52288U 22041AD  22238.58335648  .00005358  00000-0  35447-3 0  9990,2 52288  53.2165 135.1173 0001624  63.5093 136.1533 15.08843595 20810,6917.869000000002,95.437,540.8580000000002,538.611,0.0
52288.0,STARLINK-3776,PAYLOAD,2022-08-26 22:00:00,15.08845831,0.0001666999999999,53.2165,133.6224,59.9728,151.2312,-0.002048,-0.0003273999999999,0.0,0 STARLINK-3776,1 52288U 22041AD  22238.91667824 -.00032740  00000-0 -20480-2 0  9998,2 52288  53.2165 133.6224 0001667  59.9728 151.2312 15.08845831  1302,6917.863,95.437,540.881,538.5740000000002,0.0
52288.0,STARLINK-3776,PAYLOAD,2022-08-27 14:00:01,15.08816537,0.0001584,53.2159,130.6284,64.7933,169.5962,0.0027493,0.00043711,0.0,0 STARLINK-3776,1 52288U 22041AD  22239.58334491  .00043711  00000-0  27493-2 0  9992,2 52288  53.2159 130.6284 0001584  64.7933 169.5962 15.08816537  1302,6917.9519999999975,95.439,540.913,538.721,0.0
52288.0,STARLINK-3776,PAYLOAD,2022-08-27 22:00:00,15.08851016,0.0001701,53.2158,129.1335,61.6693,184.3071,-0.0011754,-0.00018952,0.0,0 STARLINK-3776,1 52288U 22041AD  22239.91667824 -.00018952  00000-0 -11754-2 0  9992,2 52288  53.2158 129.1335 0001701  61.6693 184.3071 15.08851016  1308,6917.847,95.437,540.888,538.535,0.0
52288.0,STARLINK-3776,PAYLOAD,2022-08-28 06:00:00,15.08856183,0.0001706,53.2153,127.6372,58.57899999999999,198.9977,-0.00030036,-5.067e-05,0.0,0 STARLINK-3776,1 52288U 22041AD  22240.25001157 -.00005067  00000-0 -30036-3 0  9990,2 52288  53.2153 127.6372 0001706  58.5790 198.9977 15.08856183 21066,6917.831,95.437,540.876,538.516,0.0
52288.0,STARLINK-3776,PAYLOAD,2022-08-28 14:00:01,15.08844007,0.000158,53.2152,126.1391,66.2073,202.9877,7.916100000000001e-05,9.72e-06,0.0,0 STARLINK-3776,1 52288U 22041AD  22240.58334491  .00000972  00000-0  79161-4 0  9997,2 52288  53.2152 126.1391 0001580  66.2073 202.9877 15.08844007  1302,6917.868,95.437,540.826,538.64,0.0
52288.0,STARLINK-3776,PAYLOAD,2022-08-28 22:00:00,15.08839399,0.0001646,53.2151,124.6442,60.6493,220.1483,-0.0009088,-0.00014722,0.0,0 STARLINK-3776,1 52288U 22041AD  22240.91667824 -.00014722  00000-0 -90880-3 0  9993,2 52288  53.2151 124.6442 0001646  60.6493 220.1483 15.08839399  1301,6917.882,95.438,540.886,538.609,0.0
52288.0,STARLINK-3776,PAYLOAD,2022-08-29 06:00:02,15.08857163,0.0001603,53.2148,123.1477,56.5213,235.9194,-0.0038619,-0.00061257,0.0,0 STARLINK-3776,1 52288U 22041AD  22241.25002315 -.00061257  00000-0 -38619-2 0  9995,2 52288  53.2148 123.1477 0001603  56.5213 235.9194 15.08857163 21210,6917.828,95.436,540.802,538.5840000000002,0.0
52288.0,STARLINK-3776,PAYLOAD,2022-08-29 14:00:01,15.087933800000002,0.00015,53.2148,121.6497,63.9895,239.9867,0.0029417,0.0004678,0.0,0 STARLINK-3776,1 52288U 22041AD  22241.58334491  .00046780  00000-0  29417-2 0  9992,2 52288  53.2148 121.6497 0001500  63.9895 239.9867 15.08793380  1308,6918.023,95.441,540.9259999999998,538.85,0.0
52288.0,STARLINK-3776,PAYLOAD,2022-08-29 22:00:00,15.08826719,0.000165,53.2148,120.1549,58.9513,256.5865,-0.00084083,-0.0001364,0.0,0 STARLINK-3776,1 52288U 22041AD  22241.91667824 -.00013640  00000-0 -84083-3 0  9990,2 52288  53.2148 120.1549 0001650  58.9513 256.5865 15.08826719 21316,6917.920999999999,95.438,540.927,538.645,0.0
52288.0,STARLINK-3776,PAYLOAD,2022-08-30 14:00:01,15.08811922,0.0001583,53.2148,117.1602,64.4033,274.2937,0.002967,0.00047212,0.0,0 STARLINK-3776,1 52288U 22041AD  22242.58334491  .00047212  00000-0  29670-2 0  9995,2 52288  53.2148 117.1602 0001583  64.4033 274.2937 15.08811922 21414,6917.965999999999,95.439,540.9259999999998,538.736,0.0
52288.0,STARLINK-3776,PAYLOAD,2022-08-30 22:00:00,15.08842444,0.0001743,53.2149,115.6654,59.1311,291.1481,-0.00080618,-0.00013097,0.0,0 STARLINK-3776,1 52288U 22041AD  22242.91667824 -.00013097  00000-0 -80618-3 0  9997,2 52288  53.2149 115.6654 0001743  59.1311 291.1481 15.08842444  1304,6917.873000000001,95.437,540.944,538.5319999999998,0.0
52288.0,STARLINK-3776,PAYLOAD,2022-08-31 14:00:01,15.08843837,0.000171,53.2152,112.6706,65.632,307.8491,-5.3288e-05,-1.136e-05,0.0,0 STARLINK-3776,1 52288U 22041AD  22243.58334491 -.00001136  00000-0 -53288-4 0  9997,2 52288  53.2152 112.6706 0001710  65.6320 307.8491 15.08843837  1302,6917.869000000002,95.437,540.9169999999998,538.5509999999998,0.0
52288.0,STARLINK-3776,PAYLOAD,2022-08-31 22:00:00,15.08833214,0.0001916999999999,53.2153,111.1758,61.4968,323.5869,-0.00070362,-0.00011467,0.0,0 STARLINK-3776,1 52288U 22041AD  22243.91667824 -.00011467  00000-0 -70362-3 0  9992,2 52288  53.2153 111.1758 0001917  61.4968 323.5869 15.08833214  1307,6917.901,95.438,541.092,538.44,0.0
52288.0,STARLINK-3776,PAYLOAD,2022-09-01 06:00:00,15.08849104,0.0001871,53.2154,109.6789,60.7103,335.9502,-0.0018029,-0.00028874,0.0,0 STARLINK-3776,1 52288U 22041AD  22244.25001157 -.00028874  00000-0 -18029-2 0  9992,2 52288  53.2154 109.6789 0001871  60.7103 335.9502 15.08849104 21674,6917.853,95.437,541.012,538.423,0.0
52288.0,STARLINK-3776,PAYLOAD,2022-09-01 14:00:01,15.08823183,0.0001816,53.2157,108.1811,68.2823,340.0368,0.0022738,0.00036069,0.0,0 STARLINK-3776,1 52288U 22041AD  22244.58335648  .00036069  00000-0  22738-2 0  9998,2 52288  53.2157 108.1811 0001816  68.2823 340.0368 15.08823183  1302,6917.932,95.439,541.053,538.54,0.0
52288.0,STARLINK-3776,PAYLOAD,2022-09-01 22:00:00,15.08845792,0.0001943999999999,53.2158,106.6865,62.8031,357.0484,-0.00058147,-9.532e-05,0.0,0 STARLINK-3776,1 52288U 22041AD  22244.91667824 -.00009532  00000-0 -58147-3 0  9990,2 52288  53.2158 106.6865 0001944  62.8031 357.0484 15.08845792 21778,6917.863,95.437,541.073,538.383,0.0
52288.0,STARLINK-3776,PAYLOAD,2022-09-02 14:00:01,15.08851236,0.0001766,53.2161,103.6918,69.4801,13.5788,-0.001024,-0.00016553,0.0,0 STARLINK-3776,1 52288U 22041AD  22245.58334491 -.00016553  00000-0 -10240-2 0  9997,2 52288  53.2161 103.6918 0001766  69.4801  13.5788 15.08851236  1306,6917.846,95.437,540.933,538.489,0.0
52288.0,STARLINK-3776,PAYLOAD,2022-09-02 22:00:01,15.08829292,0.0001824,53.216,102.1972,62.7917,31.9341,-0.00030366,-5.116e-05,0.0,0 STARLINK-3776,1 52288U 22041AD  22245.91668981 -.00005116  00000-0 -30366-3 0  9993,2 52288  53.2160 102.1972 0001824  62.7917  31.9341 15.08829292 21924,6917.913000000001,95.438,541.04,538.516,0.0
52288.0,STARLINK-3776,PAYLOAD,2022-09-03 14:00:01,15.08833427,0.0001702,53.2162,99.2029,71.2049,46.6284,0.0014597999999999,0.00023017,0.0,0 STARLINK-3776,1 52288U 22041AD  22246.58334491  .00023017  00000-0  14598-2 0  9999,2 52288  53.2162  99.2029 0001702  71.2049  46.6284 15.08833427  1305,6917.9,95.438,540.943,538.5880000000002,0.0
52288.0,STARLINK-3776,PAYLOAD,2022-09-03 22:00:00,15.08842182,0.0001798,53.216,97.7084,64.2687,65.1684,0.0003246,4.882e-05,0.0,0 STARLINK-3776,1 52288U 22041AD  22246.91667824  .00004882  00000-0  32460-3 0  9993,2 52288  53.2160  97.7084 0001798  64.2687  65.1684 15.08842182 22077,6917.874,95.437,540.9830000000002,538.495,0.0
52288.0,STARLINK-3776,PAYLOAD,2022-09-04 14:00:01,15.08833526,0.0001613,53.216,94.7139,71.9152,80.8002,0.0010172,0.00015935,0.0,0 STARLINK-3776,1 52288U 22041AD  22247.58335648  .00015935  00000-0  10172-2 0  9999,2 52288  53.2160  94.7139 0001613  71.9152  80.8002 15.08833526  1306,6917.9,95.438,540.881,538.649,0.0
52288.0,STARLINK-3776,PAYLOAD,2022-09-04 20:00:01,15.08853357,0.0001656,53.2157,93.5932,64.4281,6.9215,-0.0016585,-0.00026596,0.0,0 STARLINK-3776,1 52288U 22041AD  22247.83334491 -.00026596  00000-0 -16585-2 0  9993,2 52288  53.2157  93.5932 0001656  64.4281   6.9215 15.08853357  1306,6917.84,95.437,540.85,538.559,0.0
52288.0,STARLINK-3776,PAYLOAD,2022-09-05 06:00:00,15.0884384,0.0001526,53.2156,91.7219,63.9886,111.8632,-0.0017288,-0.00027699,0.0,0 STARLINK-3776,1 52288U 22041AD  22248.25001157 -.00027699  00000-0 -17288-2 0  9996,2 52288  53.2156  91.7219 0001526  63.9886 111.8632 15.08843840 22278,6917.869000000002,95.437,540.789,538.678,0.0
52288.0,STARLINK-3776,PAYLOAD,2022-09-05 14:00:01,15.08839995,0.0001505,53.2158,90.2251,70.0638,117.3718,0.00070707,0.00010983,0.0,0 STARLINK-3776,1 52288U 22041AD  22248.58334491  .00010983  00000-0  70707-3 0  9994,2 52288  53.2158  90.2251 0001505  70.0638 117.3718 15.08839995  1304,6917.88,95.438,540.7869999999998,538.7040000000002,0.0
52288.0,STARLINK-3776,PAYLOAD,2022-09-05 22:00:00,15.08823927,0.0001565999999999,53.2157,88.7305,59.7562,139.2795,-0.00033446,-5.605e-05,0.0,0 STARLINK-3776,1 52288U 22041AD  22248.91667824 -.00005605  00000-0 -33446-3 0  9996,2 52288  53.2157  88.7305 0001566  59.7562 139.2795 15.08823927  1308,6917.93,95.439,540.878,538.711,0.0
52288.0,STARLINK-3776,PAYLOAD,2022-09-06 14:00:01,15.08834581,0.000147,53.2157,85.736,67.7462,154.4347,0.00065942,0.00010221,0.0,0 STARLINK-3776,1 52288U 22041AD  22249.58334491  .00010221  00000-0  65942-3 0  9995,2 52288  53.2157  85.7360 0001470  67.7462 154.4347 15.08834581  1308,6917.897,95.438,540.779,538.745,0.0
